******** Week 939 almanac for PRN-27 ********
ID:                         27
Health:                     000
Eccentricity:               5.3262710571E-004
Time of Applicability(s):  602112.0000
Orbital Inclination(rad):   0.0182399903
Rate of Right Ascen(r/s):  -7.0060061100E-009
SQRT(A)  (m 1/2):           5282.575684
Right Ascen at Week(rad):  -2.1985049350E+000
Argument of Perigee(rad):   1.084070515
Mean Anom(rad):            -7.4426605600E-001
Af0(s):                     2.5272370000E-004
Af1(s/s):                   3.6379800000E-012
week:                        939

******** Week 939 almanac for PRN-28 ********
ID:                         28
Health:                     000
Eccentricity:               2.3984909058E-004
Time of Applicability(s):  602112.0000
Orbital Inclination(rad):   0.0181141559
Rate of Right Ascen(r/s):  -7.0060061100E-009
SQRT(A)  (m 1/2):           5282.589844
Right Ascen at Week(rad):  -2.1987442450E+000
Argument of Perigee(rad):  -1.446083614
Mean Anom(rad):             2.4968788040E+000
Af0(s):                     1.9168850000E-004
Af1(s/s):                   3.6379800000E-012
week:                        939

******** Week 939 almanac for PRN-29 ********
ID:                         29
Health:                     000
Eccentricity:               1.0156631470E-004
Time of Applicability(s):  602112.0000
Orbital Inclination(rad):   0.0163344985
Rate of Right Ascen(r/s):  -7.0060061100E-009
SQRT(A)  (m 1/2):           5282.573730
Right Ascen at Week(rad):  -2.2382573580E+000
Argument of Perigee(rad):   0.537501850
Mean Anom(rad):            -1.7528655400E+000
Af0(s):                     2.2506710000E-004
Af1(s/s):                   3.6379800000E-012
week:                        939

******** Week 939 almanac for PRN-03 ********
ID:                         03
Health:                     000
Eccentricity:               9.0789794922E-004
Time of Applicability(s):  172032.0000
Orbital Inclination(rad):   0.0270603798
Rate of Right Ascen(r/s):   2.0343704500E-009
SQRT(A)  (m 1/2):           6493.316895
Right Ascen at Week(rad):  -6.8978839200E-001
Argument of Perigee(rad):  -0.722375372
Mean Anom(rad):            -2.9652994620E+000
Af0(s):                    -1.1444090000E-004
Af1(s/s):                   2.5465900000E-011
week:                        939

******** Week 939 almanac for PRN-30 ********
ID:                         30
Health:                     000
Eccentricity:               4.8780441284E-004
Time of Applicability(s):  602112.0000
Orbital Inclination(rad):   0.0162865616
Rate of Right Ascen(r/s):  -7.0060061100E-009
SQRT(A)  (m 1/2):           5282.571777
Right Ascen at Week(rad):  -2.2377622600E+000
Argument of Perigee(rad):   0.269763779
Mean Anom(rad):            -6.6425937100E-001
Af0(s):                    -1.3351440000E-005
Af1(s/s):                  -3.6379800000E-012
week:                        939

******** Week 939 almanac for PRN-31 ********
ID:                         31
Health:                     000
Eccentricity:               3.9582252502E-003
Time of Applicability(s):  360448.0000
Orbital Inclination(rad):  -0.0031278827
Rate of Right Ascen(r/s):  -2.4686742600E-009
SQRT(A)  (m 1/2):           6492.783203
Right Ascen at Week(rad):  -1.1907248730E+000
Argument of Perigee(rad):  -2.991708949
Mean Anom(rad):             6.3934753800E-001
Af0(s):                     2.2983550000E-004
Af1(s/s):                  -2.1827900000E-011
week:                        939

******** Week 939 almanac for PRN-32 ********
ID:                         32
Health:                     000
Eccentricity:               4.7636032104E-004
Time of Applicability(s):  602112.0000
Orbital Inclination(rad):   0.0330345160
Rate of Right Ascen(r/s):  -6.4231246900E-009
SQRT(A)  (m 1/2):           5282.596680
Right Ascen at Week(rad):  -1.1941905600E-001
Argument of Perigee(rad):  -1.245803996
Mean Anom(rad):            -5.0708738500E-001
Af0(s):                    -5.5027010000E-004
Af1(s/s):                  -3.6379800000E-012
week:                        939

******** Week 939 almanac for PRN-33 ********
ID:                         33
Health:                     000
Eccentricity:               2.5129318237E-004
Time of Applicability(s):  602112.0000
Orbital Inclination(rad):   0.0330644765
Rate of Right Ascen(r/s):  -6.4345537400E-009
SQRT(A)  (m 1/2):           5282.596680
Right Ascen at Week(rad):  -1.1953964700E-001
Argument of Perigee(rad):  -0.478666421
Mean Anom(rad):             3.0083662700E-001
Af0(s):                    -9.4223020000E-004
Af1(s/s):                   0.0000000000E+000
week:                        939

******** Week 939 almanac for PRN-34 ********
ID:                         34
Health:                     000
Eccentricity:               5.2833557129E-004
Time of Applicability(s):  602112.0000
Orbital Inclination(rad):   0.0144529752
Rate of Right Ascen(r/s):  -7.0174351600E-009
SQRT(A)  (m 1/2):           5282.577148
Right Ascen at Week(rad):  -2.2362398890E+000
Argument of Perigee(rad):   0.498843736
Mean Anom(rad):             2.1835474990E+000
Af0(s):                     3.4141540000E-004
Af1(s/s):                   7.2759600000E-012
week:                        939

******** Week 939 almanac for PRN-35 ********
ID:                         35
Health:                     000
Eccentricity:               8.1539154053E-004
Time of Applicability(s):  602112.0000
Orbital Inclination(rad):   0.0145248806
Rate of Right Ascen(r/s):  -7.0174351600E-009
SQRT(A)  (m 1/2):           5282.575684
Right Ascen at Week(rad):  -2.2363009340E+000
Argument of Perigee(rad):   0.323960564
Mean Anom(rad):            -2.4140217460E+000
Af0(s):                     4.6348570000E-004
Af1(s/s):                  -7.2759600000E-012
week:                        939

******** Week 939 almanac for PRN-36 ********
ID:                         36
Health:                     000
Eccentricity:               4.4727325439E-004
Time of Applicability(s):  602112.0000
Orbital Inclination(rad):   0.0035952675
Rate of Right Ascen(r/s):  -6.9488608800E-009
SQRT(A)  (m 1/2):           5282.583008
Right Ascen at Week(rad):   1.9800890660E+000
Argument of Perigee(rad):  -0.901693831
Mean Anom(rad):             1.8476495240E+000
Af0(s):                    -6.2942500000E-005
Af1(s/s):                   1.4551900000E-011
week:                        939

******** Week 939 almanac for PRN-37 ********
ID:                         37
Health:                     000
Eccentricity:               5.6982040405E-004
Time of Applicability(s):  602112.0000
Orbital Inclination(rad):   0.0036072517
Rate of Right Ascen(r/s):  -6.9488608800E-009
SQRT(A)  (m 1/2):           5282.568359
Right Ascen at Week(rad):   1.9799452550E+000
Argument of Perigee(rad):  -0.046743720
Mean Anom(rad):             2.5540956140E+000
Af0(s):                    -9.3173980000E-004
Af1(s/s):                   0.0000000000E+000
week:                        939

******** Week 939 almanac for PRN-38 ********
ID:                         38
Health:                     000
Eccentricity:               2.1581649780E-003
Time of Applicability(s):  602112.0000
Orbital Inclination(rad):   0.0592260395
Rate of Right Ascen(r/s):  -2.4115290200E-009
SQRT(A)  (m 1/2):           6492.892578
Right Ascen at Week(rad):  -9.1076776200E-001
Argument of Perigee(rad):  -2.616621060
Mean Anom(rad):            -7.9260667500E-001
Af0(s):                     1.2874600000E-004
Af1(s/s):                   3.6379800000E-012
week:                        939

******** Week 939 almanac for PRN-39 ********
ID:                         39
Health:                     000
Eccentricity:               3.0770301819E-003
Time of Applicability(s):  602112.0000
Orbital Inclination(rad):   0.0197559948
Rate of Right Ascen(r/s):  -1.8515056900E-009
SQRT(A)  (m 1/2):           6492.929688
Right Ascen at Week(rad):   1.1785593870E+000
Argument of Perigee(rad):  -2.839399562
Mean Anom(rad):            -2.6377679740E+000
Af0(s):                    -6.6757200000E-006
Af1(s/s):                   0.0000000000E+000
week:                        939

******** Week 939 almanac for PRN-04 ********
ID:                         04
Health:                     000
Eccentricity:               7.3862075806E-004
Time of Applicability(s):  602112.0000
Orbital Inclination(rad):   0.0258739416
Rate of Right Ascen(r/s):   1.6114957000E-009
SQRT(A)  (m 1/2):           6493.412598
Right Ascen at Week(rad):  -5.9431681300E-001
Argument of Perigee(rad):  -2.932037995
Mean Anom(rad):            -3.9051720000E-002
Af0(s):                     6.2656400000E-004
Af1(s/s):                   1.5279500000E-010
week:                        939

******** Week 939 almanac for PRN-40 ********
ID:                         40
Health:                     000
Eccentricity:               3.4594535828E-003
Time of Applicability(s):  602112.0000
Orbital Inclination(rad):   0.0412856548
Rate of Right Ascen(r/s):  -1.4286309400E-009
SQRT(A)  (m 1/2):           6492.893555
Right Ascen at Week(rad):  -2.9449068050E+000
Argument of Perigee(rad):  -3.131695556
Mean Anom(rad):             1.7502582220E+000
Af0(s):                    -5.0544740000E-005
Af1(s/s):                   0.0000000000E+000
week:                        939

******** Week 939 almanac for PRN-41 ********
ID:                         41
Health:                     000
Eccentricity:               1.5978813171E-003
Time of Applicability(s):  602112.0000
Orbital Inclination(rad):   0.0318900225
Rate of Right Ascen(r/s):  -6.4345537400E-009
SQRT(A)  (m 1/2):           5282.592285
Right Ascen at Week(rad):  -1.1627956400E-001
Argument of Perigee(rad):  -1.491500830
Mean Anom(rad):             5.4883031300E-001
Af0(s):                    -8.7833400000E-004
Af1(s/s):                  -3.6379800000E-012
week:                        939

